{
  "type": "FeatureCollection",
  "name": "vok104_boundary_synthetic",
  "features": [
    {
      "type": "Feature",
      "properties": {
        "cadastral_number": "50:11:0000000:104",
        "area_m2": 1000.0,
        "area_unit": "m2",
        "land_category": "земли населённых пунктов",
        "permitted_use": "для индивидуального жилищного строительства"
      },
      "geometry": {
        "type": "Polygon",
        "coordinates": [
          [
            [
              37.6,
              55.75
            ],
            [
              37.6005,
              55.75
            ],
            [
              37.6005,
              55.750285
            ],
            [
              37.6,
              55.750285
            ],
            [
              37.6,
              55.75
            ]
          ]
        ]
      }
    }
  ],
  "crs": {
    "type": "name",
    "properties": {
      "name": "urn:ogc:def:crs:OGC:1.3:CRS84"
    }
  }
}
